NORAD_CAT_ID,OBJECT_NAME,OBJECT_TYPE,EPOCH,MEAN_MOTION,ECCENTRICITY,INCLINATION,RA_OF_ASC_NODE,ARG_OF_PERICENTER,MEAN_ANOMALY,BSTAR,MEAN_MOTION_DOT,MEAN_MOTION_DDOT,TLE_LINE0,TLE_LINE1,TLE_LINE2,SEMIMAJOR_AXIS,PERIOD,APOGEE,PERIGEE,DECAYED
55644.0,STARLINK-5502,PAYLOAD,2024-04-09 04:53:28,14.98325581,0.0003301,69.9984,148.1716,270.4475,89.6306,0.00010894,1.207e-05,0.0,0 STARLINK-5502,1 55644U 23021S   24100.20380682  .00001207  00000-0  10894-3 0  9993,2 55644  69.9984 148.1716 0003301 270.4475  89.6306 14.98325581 63710,6950.207,96.107,574.366,569.777,0.0
55644.0,STARLINK-5502,PAYLOAD,2024-04-09 09:41:53,14.98329415,0.0003232,69.9987,147.6673,271.2842,88.7946,8.0486e-05,8.67e-06,0.0,0 STARLINK-5502,1 55644U 23021S   24100.40408570  .00000867  00000-0  80486-4 0  9998,2 55644  69.9987 147.6673 0003232 271.2842  88.7946 14.98329415 64046,6950.195,96.107,574.306,569.813,0.0
55644.0,STARLINK-5502,PAYLOAD,2024-04-09 20:54:49,14.98330978,0.0003343,69.9986,146.4893,271.1572,88.9204,2.3447e-05,1.87e-06,0.0,0 STARLINK-5502,1 55644U 23021S   24100.87140585  .00000187  00000-0  23447-4 0  9997,2 55644  69.9986 146.4893 0003343 271.1572  88.9204 14.98330978 64111,6950.19,96.107,574.378,569.731,0.0
55644.0,STARLINK-5502,PAYLOAD,2024-04-10 04:55:30,14.98325314,0.0003207,69.9986,145.6476,271.0982,88.9809,5.1561e-05,5.22e-06,0.0,0 STARLINK-5502,1 55644U 23021S   24101.20520906  .00000522  00000-0  51561-4 0  9995,2 55644  69.9986 145.6476 0003207 271.0982  88.9809 14.98325314 63862,6950.207,96.107,574.301,569.843,0.0
55644.0,STARLINK-5502,PAYLOAD,2024-04-10 12:56:10,14.983319,0.0003177,69.9989,144.8061,270.6017,89.4778,-7.0894e-07,-1.02e-06,0.0,0 STARLINK-5502,1 55644U 23021S   24101.53900492 -.00000102  00000-0 -70894-6 0  9991,2 55644  69.9989 144.8061 0003177 270.6017  89.4778 14.98331900 64215,6950.187,96.107,574.26,569.844,0.0
55644.0,STARLINK-5502,PAYLOAD,2024-04-11 12:58:10,14.98331258,0.0003141,69.9988,142.2811,271.2785,88.8014,2.0577e-06,-6.8e-07,0.0,0 STARLINK-5502,1 55644U 23021S   24102.54040502 -.00000068  00000-0  20577-5 0  9992,2 55644  69.9988 142.2811 0003141 271.2785  88.8014 14.98331258 64064,6950.189,96.107,574.237,569.871,0.0
55644.0,STARLINK-5502,PAYLOAD,2024-04-11 19:22:43,14.98330134,0.0003203,69.9985,141.6081,270.5512,89.528,-5.0872e-06,-1.54e-06,0.0,0 STARLINK-5502,1 55644U 23021S   24102.80744560 -.00000154  00000-0 -50872-5 0  9994,2 55644  69.9985 141.6081 0003203 270.5512  89.5280 14.98330134 64405,6950.192,96.107,574.284,569.831,0.0
55644.0,STARLINK-5502,PAYLOAD,2024-04-12 11:24:03,14.98329618,0.0003076,69.9987,139.9245,268.8799,91.2008,3.1809e-05,2.87e-06,0.0,0 STARLINK-5502,1 55644U 23021S   24103.47504499  .00000287  00000-0  31809-4 0  9996,2 55644  69.9987 139.9245 0003076 268.8799  91.2008 14.98329618 64508,6950.194,96.107,574.197,569.921,0.0
55644.0,STARLINK-5502,PAYLOAD,2024-04-13 05:01:32,14.98330166,0.0003162,69.9985,138.0732,269.637,90.4426,5.1372e-06,-3.2e-07,0.0,0 STARLINK-5502,1 55644U 23021S   24104.20940490 -.00000032  00000-0  51372-5 0  9990,2 55644  69.9985 138.0732 0003162 269.6370  90.4426 14.98330166 64311,6950.192,96.107,574.255,569.86,0.0
55644.0,STARLINK-5502,PAYLOAD,2024-04-13 11:26:04,14.9833077,0.0003155,69.9985,137.3999,269.6252,90.4545,1.1917e-05,4.9e-07,0.0,0 STARLINK-5502,1 55644U 23021S   24104.47644420  .00000049  00000-0  11917-4 0  9990,2 55644  69.9985 137.3999 0003155 269.6252  90.4545 14.98330770 64659,6950.191,96.107,574.248,569.863,0.0
55644.0,STARLINK-5502,PAYLOAD,2024-04-14 05:03:33,14.98330331,0.000313,69.9985,135.5481,269.3253,90.7547,2.8069e-06,-6e-07,0.0,0 STARLINK-5502,1 55644U 23021S   24105.21080436 -.00000060  00000-0  28069-5 0  9995,2 55644  69.9985 135.5481 0003130 269.3253  90.7547 14.98330331 64463,6950.192,96.107,574.232,569.881,0.0
55644.0,STARLINK-5502,PAYLOAD,2024-04-14 11:28:05,14.98330422,0.0003119,69.9985,134.8749,269.9672,90.113,1.3966e-05,7.4e-07,0.0,0 STARLINK-5502,1 55644U 23021S   24105.47784397  .00000074  00000-0  13966-4 0  9993,2 55644  69.9985 134.8749 0003119 269.9672  90.1130 14.98330422 64801,6950.192,96.107,574.224,569.889,0.0
55644.0,STARLINK-5502,PAYLOAD,2024-04-15 05:05:34,14.98329887,0.0003155,69.9983,133.0232,268.3227,91.7571,2.7013e-06,-6.1e-07,0.0,0 STARLINK-5502,1 55644U 23021S   24106.21220410 -.00000061  00000-0  27013-5 0  9993,2 55644  69.9983 133.0232 0003155 268.3227  91.7571 14.98329887 64614,6950.193,96.107,574.251,569.865,0.0
55644.0,STARLINK-5502,PAYLOAD,2024-04-15 11:30:06,14.98330793,0.0003137,69.9984,132.35,268.136,91.944,1.4656e-05,8.2e-07,0.0,0 STARLINK-5502,1 55644U 23021S   24106.47924317  .00000082  00000-0  14656-4 0  9998,2 55644  69.9984 132.3500 0003137 268.1360  91.9440 14.98330793 64953,6950.19,96.107,574.236,569.875,0.0
55644.0,STARLINK-5502,PAYLOAD,2024-04-15 19:30:46,14.98332187,0.0003146,69.9984,131.5077,268.9377,91.1422,2.901e-05,2.53e-06,0.0,0 STARLINK-5502,1 55644U 23021S   24106.81304161  .00000253  00000-0  29010-4 0  9995,2 55644  69.9984 131.5077 0003146 268.9377  91.1422 14.98332187 65007,6950.186,96.107,574.238,569.865,0.0
55644.0,STARLINK-5502,PAYLOAD,2024-04-16 05:07:35,14.98332811,0.0003201,69.9982,130.4979,269.3054,90.7738,3.523e-05,3.27e-06,0.0,0 STARLINK-5502,1 55644U 23021S   24107.21360046  .00000327  00000-0  35230-4 0  9997,2 55644  69.9982 130.4979 0003201 269.3054  90.7738 14.98332811 64764,6950.184,96.107,574.274,569.824,0.0
55644.0,STARLINK-5502,PAYLOAD,2024-04-16 11:32:07,14.98335128,0.0003174,69.9983,129.8247,269.5941,90.4854,6.1014e-05,6.35e-06,0.0,0 STARLINK-5502,1 55644U 23021S   24107.48063778  .00000635  00000-0  61014-4 0  9999,2 55644  69.9983 129.8247 0003174 269.5941  90.4854 14.98335128 65100,6950.177,96.107,574.248,569.836,0.0
55644.0,STARLINK-5502,PAYLOAD,2024-04-17 05:09:36,14.98331153,0.0003142,69.9983,127.973,269.5911,90.4888,2.1493e-05,1.63e-06,0.0,0 STARLINK-5502,1 55644U 23021S   24108.21500019  .00000163  00000-0  21493-4 0  9998,2 55644  69.9983 127.9730 0003142 269.5911  90.4888 14.98331153 64917,6950.189,96.107,574.238,569.871,0.0
55644.0,STARLINK-5502,PAYLOAD,2024-04-17 11:34:08,14.98331507,0.000314,69.9982,127.2997,269.681,90.3989,2.3477e-05,1.87e-06,0.0,0 STARLINK-5502,1 55644U 23021S   24108.48203957  .00000187  00000-0  23477-4 0  9998,2 55644  69.9982 127.2997 0003140 269.6810  90.3989 14.98331507 65253,6950.188,96.107,574.236,569.871,0.0
55644.0,STARLINK-5502,PAYLOAD,2024-04-18 03:35:29,14.9832692,0.0003069,69.9982,125.6163,269.9244,90.1563,-7.1552e-05,-9.47e-06,0.0,0 STARLINK-5502,1 55644U 23021S   24109.14964549 -.00000947  00000-0 -71552-4 0  9996,2 55644  69.9982 125.6163 0003069 269.9244  90.1563 14.98326920 65051,6950.202,96.107,574.2,569.934,0.0
55644.0,STARLINK-5502,PAYLOAD,2024-04-18 11:36:09,14.9832584,0.0003048,69.9983,124.7752,268.6955,91.3855,-6.9956e-05,-9.28e-06,0.0,0 STARLINK-5502,1 55644U 23021S   24109.48344676 -.00000928  00000-0 -69956-4 0  9990,2 55644  69.9983 124.7752 0003048 268.6955  91.3855 14.98325840 65404,6950.206,96.107,574.189,569.952,0.0
55644.0,STARLINK-5502,PAYLOAD,2024-04-19 05:13:38,14.98330436,0.0003138,69.9981,122.9232,268.8097,91.2703,2.6624e-05,2.25e-06,0.0,0 STARLINK-5502,1 55644U 23021S   24110.21780151  .00000225  00000-0  26624-4 0  9998,2 55644  69.9981 122.9232 0003138 268.8097  91.2703 14.98330436 65211,6950.192,96.107,574.238,569.876,0.0
55644.0,STARLINK-5502,PAYLOAD,2024-04-19 11:38:10,14.98330492,0.0003165,69.9982,122.2499,268.1717,91.908,6.1e-05,6.35e-06,0.0,0 STARLINK-5502,1 55644U 23021S   24110.48484062  .00000635  00000-0  61000-4 0  9991,2 55644  69.9982 122.2499 0003165 268.1717  91.9080 14.98330492 65556,6950.191,96.107,574.256,569.857,0.0
55644.0,STARLINK-5502,PAYLOAD,2024-04-20 05:15:38,14.9832834,0.0003077,69.9984,120.3987,268.1744,91.9063,0.0001054,1.165e-05,0.0,0 STARLINK-5502,1 55644U 23021S   24111.21920083  .00001165  00000-0  10540-3 0  9992,2 55644  69.9984 120.3987 0003077 268.1744  91.9063 14.98328340 65360,6950.198,96.107,574.202,569.924,0.0
55644.0,STARLINK-5502,PAYLOAD,2024-04-20 10:04:03,14.98329382,0.0003154,69.9983,119.8933,269.8893,90.1905,0.00011902,1.327e-05,0.0,0 STARLINK-5502,1 55644U 23021S   24111.41947992  .00001327  00000-0  11902-3 0  9995,2 55644  69.9983 119.8933 0003154 269.8893  90.1905 14.98329382 65691,6950.195,96.107,574.252,569.868,0.0
55644.0,STARLINK-5502,PAYLOAD,2024-04-21 03:41:30,14.98346049,0.0003356,69.997,118.039,268.9893,91.0882,0.00015041,1.703e-05,0.0,0 STARLINK-5502,1 55644U 23021S   24112.15382265  .00001703  00000-0  15041-3 0  9999,2 55644  69.9970 118.0390 0003356 268.9893  91.0882 14.98346049 65502,6950.143,96.106,574.341,569.676,0.0
55644.0,STARLINK-5502,PAYLOAD,2024-04-21 10:06:02,14.98347751,0.0003189,69.9984,117.3684,266.318,93.7614,0.00016047,1.823e-05,0.0,0 STARLINK-5502,1 55644U 23021S   24112.42085851  .00001823  00000-0  16047-3 0  9990,2 55644  69.9984 117.3684 0003189 266.3180  93.7614 14.98347751 65840,6950.138,96.106,574.219,569.787,0.0
55644.0,STARLINK-5502,PAYLOAD,2024-04-21 22:55:07,14.98339374,0.0002579,70.0012,116.0225,274.0033,86.0831,6.4399e-05,6.76e-06,0.0,0 STARLINK-5502,1 55644U 23021S   24112.95494263  .00000676  00000-0  64399-4 0  9998,2 55644  70.0012 116.0225 0002579 274.0033  86.0831 14.98339374 65924,6950.164,96.106,573.821,570.236,0.0
55644.0,STARLINK-5502,PAYLOAD,2024-04-22 03:43:32,14.98324709,0.0003008,69.9983,115.5155,271.5092,88.5723,-0.00011999,-1.524e-05,0.0,0 STARLINK-5502,1 55644U 23021S   24113.15523760 -.00001524  00000-0 -11999-3 0  9998,2 55644  69.9983 115.5155 0003008 271.5092  88.5723 14.98324709 65652,6950.209,96.107,574.165,569.984,0.0
55644.0,STARLINK-5502,PAYLOAD,2024-04-22 10:08:04,14.98325256,0.0002924,69.9986,114.8428,269.4703,90.6121,-0.00010389,-1.332e-05,0.0,0 STARLINK-5502,1 55644U 23021S   24113.42227723 -.00001332  00000-0 -10389-3 0  9997,2 55644  69.9986 114.8428 0002924 269.4703  90.6121 14.98325256 65992,6950.208,96.107,574.105,570.04,0.0
